[{"OBJECT_NAME":"OBJECT A","OBJECT_ID":"2023-069A","EPOCH":"2026-03-09T23:23:38.832000","MEAN_MOTION":15.439714,"ECCENTRICITY":0.00293771,"INCLINATION":40.9954,"RA_OF_ASC_NODE":47.9643,"ARG_OF_PERICENTER":310.3432,"MEAN_ANOMALY":49.4829,"EPHEMERIS_TYPE":0,"CLASSIFICATION_TYPE":"U","NORAD_CAT_ID":56731,"ELEMENT_SET_NO":999,"REV_AT_EPOCH":15774,"BSTAR":0.00033298107,"MEAN_MOTION_DOT":0.00015557,"MEAN_MOTION_DDOT":0},{"OBJECT_NAME":"OBJECT B","OBJECT_ID":"2021-015B","EPOCH":"2026-03-09T15:14:34.210752","MEAN_MOTION":15.41258714,"ECCENTRICITY":0.0021689,"INCLINATION":97.1346,"RA_OF_ASC_NODE":105.7301,"ARG_OF_PERICENTER":273.1755,"MEAN_ANOMALY":86.7011,"EPHEMERIS_TYPE":0,"CLASSIFICATION_TYPE":"U","NORAD_CAT_ID":47700,"ELEMENT_SET_NO":999,"REV_AT_EPOCH":27907,"BSTAR":0.00033462,"MEAN_MOTION_DOT":0.00013956,"MEAN_MOTION_DDOT":0}]
